[{"OBJECT_NAME":"STARLINK-6192","OBJECT_ID":"2023-083AD","EPOCH":"2026-03-09T22:00:01.999584","MEAN_MOTION":15.1488328,"ECCENTRICITY":0.00021062,"INCLINATION":43.0015,"RA_OF_ASC_NODE":79.7592,"ARG_OF_PERICENTER":275.013,"MEAN_ANOMALY":85.6759,"EPHEMERIS_TYPE":0,"CLASSIFICATION_TYPE":"U","NORAD_CAT_ID":56903,"ELEMENT_SET_NO":999,"REV_AT_EPOCH":557,"BSTAR":0.066421803,"MEAN_MOTION_DOT":0.01370336,"MEAN_MOTION_DDOT":0},{"OBJECT_NAME":"FLOCK 4BE-11","OBJECT_ID":"2024-149AK","EPOCH":"2026-03-09T15:40:48.031680","MEAN_MOTION":15.39310468,"ECCENTRICITY":0.00031051,"INCLINATION":97.3734,"RA_OF_ASC_NODE":151.8871,"ARG_OF_PERICENTER":261.1576,"MEAN_ANOMALY":98.9318,"EPHEMERIS_TYPE":0,"CLASSIFICATION_TYPE":"U","NORAD_CAT_ID":60501,"ELEMENT_SET_NO":999,"REV_AT_EPOCH":8702,"BSTAR":0.00060399603,"MEAN_MOTION_DOT":0.00023523,"MEAN_MOTION_DDOT":0}]
